FLOCK 4G-10             
1 62670U 25009BP  26068.70827885  .00013952  00000+0  52624-3 0  9995
2 62670  97.3967 150.5883 0003469 341.4844  18.6269 15.27155944121340
STARLINK-35600          
1 66510U 25263AB  26067.83128933  .00028253  00000+0  10327-2 0  9998
2 66510  43.0033 355.8857 0001377 246.7545 113.3161 15.27568302 18762
